CCSDS_OMM_VERS,COMMENT,CREATION_DATE,ORIGINATOR,OBJECT_NAME,OBJECT_ID,CENTER_NAME,REF_FRAME,TIME_SYSTEM,MEAN_ELEMENT_THEORY,EPOCH,MEAN_MOTION,ECCENTRICITY,INCLINATION,RA_OF_ASC_NODE,ARG_OF_PERICENTER,MEAN_ANOMALY,EPHEMERIS_TYPE,CLASSIFICATION_TYPE,NORAD_CAT_ID,ELEMENT_SET_NO,REV_AT_EPOCH,BSTAR,MEAN_MOTION_DOT,MEAN_MOTION_DDOT,SEMIMAJOR_AXIS,PERIOD,APOAPSIS,PERIAPSIS,OBJECT_TYPE,RCS_SIZE,COUNTRY_CODE,LAUNCH_DATE,SITE,DECAY_DATE,FILE,GP_ID,TLE_LINE0,TLE_LINE1,TLE_LINE2
"2.0","GENERATED VIA SPACE-TRACK.ORG API","2009-04-11T17:54:34","18 SPCS","IRIDIUM 33","1997-051C","EARTH","TEME","UTC","SGP4","2009-04-11T21:43:28.830720","14.32473191","0.00057930","86.3814","96.1236","246.7125","113.3453","0","U","24946","999","60608","0.00002335700000","0.00000083","0.0000000000000","7161.617","100.525","787.631","779.333","PAYLOAD","LARGE","US","1997-09-14","TTMTR","","699815","70734607","0 IRIDIUM 33","1 24946U 97051C   09101.90519480  .00000083  00000-0  23357-4 0  9999","2 24946 086.3814 096.1236 0005793 246.7125 113.3453 14.32473191606080"
"2.0","GENERATED VIA SPACE-TRACK.ORG API","2009-04-12T10:27:08","18 SPCS","IRIDIUM 33","1997-051C","EARTH","TEME","UTC","SGP4","2009-04-11T21:43:28.830720","14.32473191","0.00057930","86.3814","96.1236","246.7125","113.3453","0","U","24946","999","60608","0.00002335700000","0.00000083","0.0000000000000","7161.617","100.525","787.631","779.333","PAYLOAD","LARGE","US","1997-09-14","TTMTR","","700085","70739802","0 IRIDIUM 33","1 24946U 97051C   09101.90519480  .00000083  00000-0  23357-4 0  9999","2 24946 086.3814 096.1236 0005793 246.7125 113.3453 14.32473191606080"
"2.0","GENERATED VIA SPACE-TRACK.ORG API","2009-04-13T07:35:20","18 SPCS","IRIDIUM 33","1997-051C","EARTH","TEME","UTC","SGP4","2009-04-11T21:43:28.830720","14.32473191","0.00057930","86.3814","96.1236","246.7125","113.3453","0","U","24946","999","60608","0.00002335700000","0.00000083","0.0000000000000","7161.617","100.525","787.631","779.333","PAYLOAD","LARGE","US","1997-09-14","TTMTR","","700311","70752220","0 IRIDIUM 33","1 24946U 97051C   09101.90519480  .00000083  00000-0  23357-4 0  9999","2 24946 086.3814 096.1236 0005793 246.7125 113.3453 14.32473191606080"
"2.0","GENERATED VIA SPACE-TRACK.ORG API","2009-04-13T07:51:24","18 SPCS","COSMOS 2251","1993-036A","EARTH","TEME","UTC","SGP4","2009-04-13T12:16:09.528959","14.32043548","0.00248120","74.0359","264.5351","28.9829","331.2697","0","U","22675","999","82643","0.00000971920000","0.00000000","0.0000000000000","7163.049","100.555","802.687","767.141","PAYLOAD","LARGE","CIS","1993-06-16","PKMTR","","700320","70752294","0 COSMOS 2251","1 22675U 93036A   09103.51122140  .00000000  00000-0  97192-5 0  9995","2 22675 074.0359 264.5351 0024812 028.9829 331.2697 14.32043548826431"
"2.0","GENERATED VIA SPACE-TRACK.ORG API","2009-04-13T07:54:58","18 SPCS","IRIDIUM 33","1997-051C","EARTH","TEME","UTC","SGP4","2009-04-13T12:17:01.560768","14.32473362","0.00058480","86.3812","95.4517","239.8189","120.2436","0","U","24946","999","60631","0.00002055500000","0.00000075","0.0000000000000","7161.616","100.525","787.669","779.293","PAYLOAD","LARGE","US","1997-09-14","TTMTR","","700321","70752295","0 IRIDIUM 33","1 24946U 97051C   09103.51182362  .00000075  00000-0  20555-4 0  9991","2 24946 086.3812 095.4517 0005848 239.8189 120.2436 14.32473362606310"
"2.0","GENERATED VIA SPACE-TRACK.ORG API","2009-04-14T07:50:32","18 SPCS","IRIDIUM 33","1997-051C","EARTH","TEME","UTC","SGP4","2009-04-13T12:17:01.560768","14.32473362","0.00058480","86.3812","95.4517","239.8189","120.2436","0","U","24946","999","60631","0.00002055500000","0.00000075","0.0000000000000","7161.616","100.525","787.669","779.293","PAYLOAD","LARGE","US","1997-09-14","TTMTR","","700801","70766949","0 IRIDIUM 33","1 24946U 97051C   09103.51182362  .00000075  00000-0  20555-4 0  9991","2 24946 086.3812 095.4517 0005848 239.8189 120.2436 14.32473362606310"
"2.0","GENERATED VIA SPACE-TRACK.ORG API","2009-04-14T08:15:33","18 SPCS","COSMOS 2251","1993-036A","EARTH","TEME","UTC","SGP4","2009-04-14T11:44:29.935103","14.32043403","0.00249190","74.0356","262.7508","26.7493","333.4922","0","U","22675","999","82657","0.00000195800000","-0.00000021","0.0000000000000","7163.050","100.555","802.764","767.065","PAYLOAD","LARGE","CIS","1993-06-16","PKMTR","","700812","70767025","0 COSMOS 2251","1 22675U 93036A   09104.48923536 -.00000021  00000-0  19580-5 0  9999","2 22675 074.0356 262.7508 0024919 026.7493 333.4922 14.32043403826573"
"2.0","GENERATED VIA SPACE-TRACK.ORG API","2009-04-14T08:16:18","18 SPCS","IRIDIUM 33","1997-051C","EARTH","TEME","UTC","SGP4","2009-04-14T11:45:16.241183","14.32473354","0.00058740","86.3814","95.0426","235.5053","124.5580","0","U","24946","999","60645","0.00001704800000","0.00000066","0.0000000000000","7161.616","100.525","787.688","779.275","PAYLOAD","LARGE","US","1997-09-14","TTMTR","","700813","70767026","0 IRIDIUM 33","1 24946U 97051C   09104.48977131  .00000066  00000-0  17048-4 0  9997","2 24946 086.3814 095.0426 0005874 235.5053 124.5580 14.32473354606452"
"2.0","GENERATED VIA SPACE-TRACK.ORG API","2009-04-15T07:34:11","18 SPCS","IRIDIUM 33","1997-051C","EARTH","TEME","UTC","SGP4","2009-04-14T11:45:16.241183","14.32473354","0.00058740","86.3814","95.0426","235.5053","124.5580","0","U","24946","999","60645","0.00001704800000","0.00000066","0.0000000000000","7161.616","100.525","787.688","779.275","PAYLOAD","LARGE","US","1997-09-14","TTMTR","","701249","70781620","0 IRIDIUM 33","1 24946U 97051C   09104.48977131  .00000066  00000-0  17048-4 0  9997","2 24946 086.3814 095.0426 0005874 235.5053 124.5580 14.32473354606452"
"2.0","GENERATED VIA SPACE-TRACK.ORG API","2009-04-15T08:09:00","18 SPCS","IRIDIUM 33","1997-051C","EARTH","TEME","UTC","SGP4","2009-04-15T11:13:30.955295","14.32473325","0.00059050","86.3815","94.6336","231.2967","128.7691","0","U","24946","999","60659","0.00001351800000","0.00000056","0.0000000000000","7161.616","100.525","787.710","779.253","PAYLOAD","LARGE","US","1997-09-14","TTMTR","","701260","70781696","0 IRIDIUM 33","1 24946U 97051C   09105.46771939  .00000056  00000-0  13518-4 0  9991","2 24946 086.3815 094.6336 0005905 231.2967 128.7691 14.32473325606592"
"2.0","GENERATED VIA SPACE-TRACK.ORG API","2009-04-15T08:08:43","18 SPCS","COSMOS 2251","1993-036A","EARTH","TEME","UTC","SGP4","2009-04-15T12:53:26.121696","14.32043212","0.00249510","74.0357","260.8397","24.5140","335.7172","0","U","22675","999","82672","-0.00000439380000","-0.00000038","0.0000000000000","7163.050","100.555","802.788","767.043","PAYLOAD","LARGE","CIS","1993-06-16","PKMTR","","701259","70781695","0 COSMOS 2251","1 22675U 93036A   09105.53710789 -.00000038  00000-0 -43938-5 0  9993","2 22675 074.0357 260.8397 0024951 024.5140 335.7172 14.32043212826727"
"2.0","GENERATED VIA SPACE-TRACK.ORG API","2009-04-16T07:50:15","18 SPCS","COSMOS 2251","1993-036A","EARTH","TEME","UTC","SGP4","2009-04-16T12:21:46.581407","14.32043248","0.00249910","74.0359","259.0560","22.3554","337.8685","0","U","22675","999","82686","-0.00000238520000","-0.00000032","0.0000000000000","7163.050","100.555","802.816","767.014","PAYLOAD","LARGE","CIS","1993-06-16","PKMTR","","701722","70797424","0 COSMOS 2251","1 22675U 93036A   09106.51512247 -.00000032  00000-0 -23852-5 0  9998","2 22675 074.0359 259.0560 0024991 022.3554 337.8685 14.32043248826866"
"2.0","GENERATED VIA SPACE-TRACK.ORG API","2009-04-16T10:02:53","18 SPCS","COSMOS 2251","1993-036A","EARTH","TEME","UTC","SGP4","2009-04-16T12:21:47.389247","14.32042743","0.00251700","74.0364","259.0540","21.8193","338.4513","0","U","22675","999","82686","0.00000000000000","-0.00000121","0.0000000000000","7163.052","100.555","802.946","766.888","PAYLOAD","LARGE","CIS","1993-06-16","PKMTR","","701768","70805182","0 COSMOS 2251","1 22675U 93036A   09106.51513182 -.00000121  00000-0  00000+0 0  9999","2 22675 074.0364 259.0540 0025170 021.8193 338.4513 14.32042743826869"
"2.0","GENERATED VIA SPACE-TRACK.ORG API","2009-04-16T07:50:47","18 SPCS","IRIDIUM 33","1997-051C","EARTH","TEME","UTC","SGP4","2009-04-16T12:22:21.014400","14.32473385","0.00059790","86.3818","94.1955","226.2777","133.7931","0","U","24946","999","60674","0.00001156000000","0.00000051","0.0000000000000","7161.616","100.525","787.763","779.199","PAYLOAD","LARGE","US","1997-09-14","TTMTR","","701724","70797450","0 IRIDIUM 33","1 24946U 97051C   09106.51552100  .00000051  00000-0  11560-4 0  9995","2 24946 086.3818 094.1955 0005979 226.2777 133.7931 14.32473385606747"
"2.0","GENERATED VIA SPACE-TRACK.ORG API","2009-04-16T09:26:49","18 SPCS","IRIDIUM 33","1997-051C","EARTH","TEME","UTC","SGP4","2009-04-16T12:22:21.014400","14.32473385","0.00059790","86.3818","94.1955","226.2777","133.7931","0","U","24946","999","60674","0.00001156000000","0.00000051","0.0000000000000","7161.616","100.525","787.763","779.199","PAYLOAD","LARGE","US","1997-09-14","TTMTR","","701756","70805054","0 IRIDIUM 33","1 24946U 97051C   09106.51552100  .00000051  00000-0  11560-4 0  9995","2 24946 086.3818 094.1955 0005979 226.2777 133.7931 14.32473385606747"
"2.0","GENERATED VIA SPACE-TRACK.ORG API","2009-04-16T10:02:53","18 SPCS","IRIDIUM 33","1997-051C","EARTH","TEME","UTC","SGP4","2009-04-16T12:22:21.817919","14.32473086","0.00062600","86.3813","94.1947","222.4899","137.6304","0","U","24946","999","60674","0.00000000000000","-0.00000028","0.0000000000000","7161.617","100.525","787.965","778.999","PAYLOAD","LARGE","US","1997-09-14","TTMTR","","701768","70805197","0 IRIDIUM 33","1 24946U 97051C   09106.51553030 -.00000028  00000-0  00000+0 0  9995","2 24946 086.3813 094.1947 0006260 222.4899 137.6304 14.32473086606745"
